{
  "type": "FeatureCollection",
  "features": [
    {
      "type": "Feature",
      "properties": {
        "type": "drone",
        "started_at": "2026-10-04T15:19:27+00:00",
        "last_updated": "2026-10-04T16:43:49+00:00",
        "path_labels": [
          "Ильский (Краснодарский край)",
          "Геленджик (Краснодарский край)"
        ]
      },
      "geometry": {
        "type": "LineString",
        "coordinates": [
          [
            38.5608255,
            44.8458544
          ],
          [
            38.0766832,
            44.5609447
          ]
        ]
      }
    },
    {
      "type": "Feature",
      "properties": {
        "type": "drone",
        "started_at": "2026-10-04T16:05:51+00:00",
        "last_updated": "2026-10-04T16:34:15+00:00",
        "path_labels": [
          "Почеп (Брянская область)",
          "Стародуб (Брянская область)"
        ]
      },
      "geometry": {
        "type": "LineString",
        "coordinates": [
          [
            33.4544207,
            52.9287784
          ],
          [
            32.7603126,
            52.5853016
          ]
        ]
      }
    },
    {
      "type": "Feature",
      "properties": {
        "type": "drone",
        "started_at": "2026-10-04T16:20:56+00:00",
        "last_updated": "2026-10-04T17:19:44+00:00",
        "path_labels": [
          "Трубчевск (Брянская область)",
          "Почепский (Брянская область)",
          "Унечский (Брянская область)"
        ]
      },
      "geometry": {
        "type": "LineString",
        "coordinates": [
          [
            33.767467,
            52.5835
          ],
          [
            33.493436,
            52.9262598
          ],
          [
            32.8245377,
            52.8313819
          ]
        ]
      }
    },
    {
      "type": "Feature",
      "properties": {
        "type": "drone",
        "started_at": "2026-10-04T17:16:43+00:00",
        "last_updated": "2026-10-04T17:16:43+00:00",
        "path_labels": [
          "Курская область",
          "Орловской области"
        ]
      },
      "geometry": {
        "type": "LineString",
        "coordinates": [
          [
            36.12588265476281,
            51.70340320764268
          ],
          [
            36.48367325764956,
            52.792109083184116
          ]
        ]
      }
    },
    {
      "type": "Feature",
      "properties": {
        "type": "drone",
        "started_at": "2026-10-04T17:16:54+00:00",
        "last_updated": "2026-10-04T17:16:54+00:00",
        "path_labels": [
          "Курская область",
          "Орловской области"
        ]
      },
      "geometry": {
        "type": "LineString",
        "coordinates": [
          [
            36.12588265476281,
            51.70340320764268
          ],
          [
            36.48367325764956,
            52.792109083184116
          ]
        ]
      }
    }
  ]
}